ONEWEB-0063             
1 45448U 20020AA  24078.37325709  .00000225  00000+0  59769-3 0  9993
2 45448  87.9037 184.2672 0002231 107.7905 252.3466 13.11414887195111
ONEWEB-0019             
1 45449U 20020AB  24079.18654614  .00000228  00000+0  60697-3 0  9999
2 45449  87.9045 184.1062 0001819 110.9487 249.1835 13.11418732195077
ONEWEB-0094             
1 45450U 20020AC  24079.17032792  .00002156  00000+0  55192-2 0  9992
2 45450  87.9254 168.9775 0002139  96.0041 264.1334 13.17641478198321
ONEWEB-0087             
1 45451U 20020AD  24078.83752589  .00000000  00000+0 -36450-4 0  9993
2 45451  87.9035 184.1516 0001923  94.5048 265.6300 13.11415078195068
ONEWEB-0082             
1 45452U 20020AE  24078.83914805 -.00000129  00000+0 -40074-3 0  9994
2 45452  87.9038 184.1521 0001727 103.0355 257.0966 13.11414860195158
ONEWEB-0050             
1 45453U 20020AF  24078.88810982  .00003341  00000+0  35582-3 0  9996
2 45453  87.9997  50.9884 0005641  70.8516 289.3322 14.88651448218187
ONEWEB-0034             
1 45454U 20020AG  24078.70602852 -.00000387  00000+0 -11280-2 0  9990
2 45454  87.9039 184.1963 0001881 104.8067 255.3270 13.11419039195052
ONEWEB-0060             
1 45455U 20020AH  24078.71414055 -.00000554  00000+0 -15993-2 0  9999
2 45455  87.9042 184.1919 0001957 101.2525 258.8823 13.11420089195017
